IRIDIUM 63              
1 25286U 98021B   25215.05726684  .00000293  00000+0  93007-4 0  9992
2 25286  86.3938  62.4590 0002266  91.0956 269.0501 14.36572462430576
IRIDIUM 69              
1 25319U 98026A   25215.55100010  .00000405  00000+0  11993-3 0  9996
2 25319  86.3932  75.4007 0001526 165.0180 195.1065 14.41004455429887
IRIDIUM 71              
1 25320U 98026B   25215.13509531  .00000330  00000+0  96263-4 0  9994
2 25320  86.3931  70.2582 0000870  11.2429 348.8789 14.41188256430354
IRIDIUM 73              
1 25344U 98032C   25215.48392185  .00000561  00000+0  13462-3 0  9995
2 25344  86.4406  26.7182 0002170 108.1304 252.0138 14.51756943437427
IRIDIUM 82              
1 25467U 98051A   25215.54436470  .00022746  00000+0  61152-3 0  9993
2 25467  86.3633  86.4168 0084229 115.6271 245.3713 15.34139928431217
